{
  "type": "FeatureCollection",
  "features": [
    {
      "type": "Feature",
      "properties": { "id": 1, "name": "Devdan Block", "color": "red" },
      "geometry": {
        "type": "Polygon",
        "coordinates": [[
          [77.43917635330726, 12.86050490639038, 0],
          [77.43899234412719, 12.85984651586654, 0],
          [77.43923837529667, 12.8597810736282, 0],
          [77.43918995005723, 12.85956398672495, 0],
          [77.43925348042983, 12.85954243292164, 0],
          [77.43922761817416, 12.85939041421574, 0],
          [77.43946297307694, 12.85931279773121, 0],
          [77.43976105787009, 12.86034108041754, 0],
          [77.43966787256801, 12.86035763827333, 0],
          [77.43961596582447, 12.86039147779193, 0],
          [77.43955999445988, 12.86042532004939, 0],
          [77.43952163669879, 12.8604430049469, 0],
          [77.43948299600578, 12.86045563147842, 0],
          [77.43944337622925, 12.86046605151771, 0],
          [77.43939815003057, 12.86047620137277, 0],
          [77.43934558315699, 12.86048230225671, 0],
          [77.43929950446083, 12.86048314754196, 0],
          [77.43927022960332, 12.86047832725911, 0],
          [77.43917635330726, 12.86050490639038, 0]
        ]]
      }
    },
    {
      "type": "Feature",
      "properties": { "id": 2, "name": "Basketball 1", "color": "yellow"},
      "geometry": {
        "type": "Polygon",
        "coordinates": [[
          [77.43716007569962, 12.86190057440364, 0],
          [77.43723870910051, 12.86221072627428, 0],
          [77.4370666413874, 12.86225483608734, 0],
          [77.43696743258771, 12.86195575381204, 0],
          [77.43716007569962, 12.86190057440364, 0]
        ]]
      }
    },
    {
      "type": "Feature",
      "properties": { "id": 3, "name": "Basketball 2", "color": "yellow" },
      "geometry": {
        "type": "Polygon",
        "coordinates": [[
          [77.43695467133065, 12.86180364615626, 0],
          [77.43686267607167, 12.8615266783176, 0],
          [77.43706215057148, 12.86146491166902, 0],
          [77.4371354006623, 12.86173867925143, 0],
          [77.43695467133065, 12.86180364615626, 0]
        ]]
      }
    },
    {
      "type": "Feature",
      "properties": { "id": 4, "name": "Block 4","color": "red" },
      "geometry": {
        "type": "Polygon",
        "coordinates": [[
          [77.43917124814757, 12.86282069368337, 0],
          [77.43891253060578, 12.86220241782971, 0],
          [77.43915197548658, 12.86210819104385, 0],
          [77.43916804717792, 12.86210886447117, 0],
          [77.4391700427142, 12.86210821987768, 0],
          [77.43917809099466, 12.86210304217233, 0],
          [77.43919883046472, 12.86210181938825, 0],
          [77.43921912245992, 12.86210302984367, 0],
          [77.43923799671742, 12.86210771281337, 0],
          [77.43924982740239, 12.86211381596149, 0],
          [77.4392647933163, 12.86213831886355, 0],
          [77.43941770638297, 12.86206828832799, 0],
          [77.43966452526141, 12.86250403525098, 0],
          [77.43942828330982, 12.86259999889715, 0],
          [77.43945234955649, 12.86269605764229, 0],
          [77.43917124814757, 12.86282069368337, 0]
        ]]
      }
    },
    {
      "type": "Feature",
      "properties": { "id": 5, "name": "Chapel", "color": "orange"},
      "geometry": {
        "type": "Polygon",
        "coordinates": [[
          [77.43751835207109, 12.86039677223134, 0],
          [77.43747897264498, 12.86019678885215, 0],
          [77.43786335309068, 12.86010075795263, 0],
          [77.43792591529764, 12.86030029892348, 0],
          [77.43751835207109, 12.86039677223134, 0]
        ]]
      }
    },
    {
      "type": "Feature",
      "properties": { "id": 6, "name": "Devadan Football Ground","color": "yellow" },
      "geometry": {
        "type": "Polygon",
        "coordinates": [[
          [77.44093947156659, 12.85778588073384, 0],
          [77.44145381290265, 12.85759605370781, 0],
          [77.44177578417646, 12.85840045884752, 0],
          [77.44134260093674, 12.85868774608898, 0],
          [77.44093947156659, 12.85778588073384, 0]
        ]]
      }
    },
    {
      "type": "Feature",
      "properties": { "id": 7, "name": "Devdan Block (no coords found)" },
      "geometry": null
    },
    {
      "type": "Feature",
      "properties": { "id": 8, "name": "First block", "color": "red" },
      "geometry": {
        "type": "Polygon",
        "coordinates": [[
          [77.43775600723269, 12.8631246191905, 0],
          [77.43775607995481, 12.86311890968266, 0],
          [77.43775619359262, 12.86310999051689, 0],
          [77.43775626545003, 12.86310434791712, 0],
          [77.43775778971386, 12.86310034802892, 0],
          [77.43775859884292, 12.8630946524791, 0],
          [77.43775865121002, 12.86309058386601, 0],
          [77.43775869291169, 12.86308733949267, 0],
          [77.43775873451042, 12.86308410441633, 0],
          [77.43775877603998, 12.86308087863511, 0],
          [77.43775740444268, 12.86307440742603, 0],
          [77.43775602967683, 12.86306877064061, 0],
          [77.43775466200931, 12.86306316303567, 0],
          [77.43775475563402, 12.86305684127663, 0],
          [77.43775482551436, 12.86305212338516, 0],
          [77.43775488352583, 12.86304820711742, 0],
          [77.43775492975531, 12.86304508400018, 0],
          [77.43775497587797, 12.86304196968008, 0],
          [77.43775505632745, 12.86303654069934, 0],
          [77.43775443540544, 12.86303034545543, 0],
          [77.43781879768089, 12.8629993101407, 0],
          [77.4377347937033, 12.8627894809466, 0],
          [77.43793760975461, 12.86269589264376, 0],
          [77.43802557141065, 12.86290880230873, 0],
          [77.43805751341445, 12.86290549715502, 0],
          [77.4381629900705, 12.86311652665234, 0],
          [77.43814264033593, 12.86312607506539, 0],
          [77.43824398072837, 12.86335505128923, 0],
          [77.4380629281808, 12.86345111344876, 0],
          [77.43800131327714, 12.86340441187491, 0],
          [77.4379227459802, 12.86324569465704, 0],
          [77.43791854159616, 12.86324916810388, 0],
          [77.43791105818319, 12.86324982645706, 0],
          [77.43790685640636, 12.86325240217365, 0],
          [77.43790098829243, 12.86325492661735, 0],
          [77.4378951351885, 12.86325654680597, 0],
          [77.4378901087308, 12.86325819573026, 0],
          [77.43788676409322, 12.86325899284856, 0],
          [77.43788261498459, 12.86325885417003, 0],
          [77.43787595228159, 12.86325954023255, 0],
          [77.43787014964937, 12.86325934600145, 0],
          [77.43786431895691, 12.86326005951329, 0],
          [77.43786017819939, 12.86325992062899, 0],
          [77.43785600474925, 12.86326068950919, 0],
          [77.43785017553364, 12.86326140288328, 0],
          [77.43784686617431, 12.86326129153375, 0],
          [77.43784107794374, 12.86326109687132, 0],
          [77.43782429566333, 12.86324903526221, 0],
          [77.43775600723269, 12.8631246191905, 0]
        ]]
      }
    },
    {
      "type": "Feature",
      "properties": { "id": 9, "name": "Football and track Playground", "color": "yellow" },
      "geometry": {
        "type": "Polygon",
        "coordinates": [[
          [77.43589525456464, 12.86121660231805, 0],
          [77.4359148581574, 12.86113250539346, 0],
          [77.43594005393599, 12.86107202709044, 0],
          [77.43598419724123, 12.8610117557206, 0],
          [77.43606209642938, 12.86094832765875, 0],
          [77.43612929842267, 12.8609157663431, 0],
          [77.43624044389746, 12.86089966955496, 0],
          [77.43636683863376, 12.86092334478234, 0],
          [77.43643725441375, 12.86096056717952, 0],
          [77.43648958489197, 12.86100348164924, 0],
          [77.43652563288668, 12.861047243701, 0],
          [77.43656395204009, 12.86112122603373, 0],
          [77.43649111863506, 12.86088516017141, 0],
          [77.43656962979831, 12.86086283086035, 0],
          [77.43691658281035, 12.86195364273259, 0],
          [77.43689862042083, 12.86204989301561, 0],
          [77.43687680046929, 12.86213530083369, 0],
          [77.43683302298027, 12.86221460265276, 0],
          [77.43676676412001, 12.86229151230146, 0],
          [77.43667858659946, 12.86233875332401, 0],
          [77.43661005678682, 12.86236997437029, 0],
          [77.43652113252797, 12.86238493359962, 0],
          [77.43643632372248, 12.86238059267016, 0],
          [77.43631610151849, 12.86234976838137, 0],
          [77.43620517824527, 12.86227218510155, 0],
          [77.43610715834295, 12.86217531994633, 0],
          [77.43587621616852, 12.86149296797933, 0],
          [77.43594777687277, 12.86146975901915, 0],
          [77.4359057627769, 12.86131491678987, 0],
          [77.43589525456464, 12.86121660231805, 0]
        ]]
      }
    },
    {
      "type": "Feature",
      "properties": { "id": 10, "name": "Juice World", "color":"#e63946"  },
      "geometry": {
        "type": "Polygon",
        "coordinates": [[
          [77.43953870753039, 12.86217888684644, 0],
          [77.43953968855341, 12.86217999300896, 0],
          [77.43954657732003, 12.86218776056836, 0],
          [77.43955154100871, 12.86219225404893, 0],
          [77.43955851029837, 12.86219900359641, 0],
          [77.43956344963783, 12.86220789471483, 0],
          [77.43956840430133, 12.862217937762, 0],
          [77.43957134487367, 12.86222797217364, 0],
          [77.43957329034113, 12.86223692072524, 0],
          [77.43957525811325, 12.8622448225604, 0],
          [77.4395772305995, 12.86225288293223, 0],
          [77.43957819075526, 12.86225979753605, 0],
          [77.43957700640239, 12.86227359703782, 0],
          [77.43957698132201, 12.86227591592905, 0],
          [77.43955185933844, 12.86228535428729, 0],
          [77.4395144041349, 12.86218549827706, 0],
          [77.43953870753039, 12.86217888684644, 0]
        ]]
      }
    },
    {
      "type": "Feature",
      "properties": { "id": 11, "name": "Laundry", "color": "purple" },
      "geometry": {
        "type": "Polygon",
        "coordinates": [[
          [77.44090107585143, 12.86016681810679, 0],
          [77.44163927913519, 12.85980972905452, 0],
          [77.44187248134037, 12.86078488285062, 0],
          [77.44120108897845, 12.86104055950569, 0],
          [77.44102356986136, 12.86107433803043, 0],
          [77.44036711385462, 12.86115798685809, 0],
          [77.44001390144709, 12.86123051794629, 0],
          [77.43989299196785, 12.86057438393019, 0],
          [77.44090107585143, 12.86016681810679, 0]
        ]]
      }
    },
    {
      "type": "Feature",
      "properties": { "id": 12, "name": "Long Jump", "color": "yellow" },
      "geometry": {
        "type": "Polygon",
        "coordinates": [[
          [77.4358231768903, 12.86176763426339, 0],
          [77.43589631896639, 12.86172468082192, 0],
          [77.43596196134565, 12.86188617487835, 0],
          [77.43588337977367, 12.86191831705892, 0],
          [77.4358231768903, 12.86176763426339, 0]
        ]]
      }
    },
    {
      "type": "Feature",
      "properties": { "id": 13, "name": "MBA Canteen", "color": "#e63946"  },
      "geometry": {
        "type": "Polygon",
        "coordinates": [[
          [77.43773020834865, 12.86279278717707, 0],
          [77.43781481513727, 12.86300032430763, 0],
          [77.43775581190074, 12.86303141043645, 0],
          [77.43775484796335, 12.8630437633505, 0],
          [77.4377542636506, 12.86305291219374, 0],
          [77.43775406713098, 12.86305598942789, 0],
          [77.43775383670459, 12.86305959720289, 0],
          [77.4377540069148, 12.86306427946689, 0],
          [77.4377554250924, 12.86307166695916, 0],
          [77.43775614010636, 12.86307539151642, 0],
          [77.43775761424295, 12.86308236861977, 0],
          [77.43775818120778, 12.86308884497915, 0],
          [77.43775773008954, 12.86309643793749, 0],
          [77.43775756778309, 12.8630991697888, 0],
          [77.43775737499104, 12.8631024505584, 0],
          [77.43775704787896, 12.86310838447731, 0],
          [77.43775638369497, 12.8631116227065, 0],
          [77.43775614177538, 12.86311598586213, 0],
          [77.43775541110462, 12.86312035538859, 0],
          [77.43775516501491, 12.86312476850744, 0],
          [77.43782114388186, 12.86324899923378, 0],
          [77.4378382685552, 12.86325968976367, 0],
          [77.43783826525743, 12.86326166842626, 0],
          [77.43783231769194, 12.86326268139614, 0],
          [77.4378312374641, 12.86326262529787, 0],
          [77.43784967105235, 12.86326227465431, 0],
          [77.43785539630163, 12.86326335601826, 0],
          [77.43786442703998, 12.86326454553299, 0],
          [77.43787267666558, 12.86326481245169, 0],
          [77.43787680452822, 12.86326494604261, 0],
          [77.43788681429075, 12.86326167772979, 0],
          [77.43789350694387, 12.86325830930328, 0],
          [77.43789936169765, 12.86325492143333, 0],
          [77.43790434532119, 12.8632532952669, 0],
          [77.4379118132933, 12.86325085853678, 0],
          [77.43791677372013, 12.86325012457438, 0],
          [77.43792174511005, 12.86324850210419, 0],
          [77.43801506896817, 12.86346479832526, 0],
          [77.43771610365486, 12.8636216723466, 0],
          [77.43757157150237, 12.86320706202898, 0],
          [77.43766956522822, 12.86315795415833, 0],
          [77.43758345160759, 12.86293351033513, 0],
          [77.43756649424328, 12.86290133710239, 0],
          [77.43756443415919, 12.86288200803103, 0],
          [77.4375831474143, 12.86285496854027, 0],
          [77.43773020834865, 12.86279278717707, 0]
        ]]
      }
    },
    {
      "type": "Feature",
      "properties": { "id": 14, "name": "North Canteen", "color": "#e63946"  },
      "geometry": {
        "type": "Polygon",
        "coordinates": [[
          [77.43887844453603, 12.85943205775281, 0],
          [77.43920831044707, 12.85934234932551, 0],
          [77.43924645950332, 12.85953540936397, 0],
          [77.43918637967346, 12.85956507818835, 0],
          [77.43923280651617, 12.85977444349731, 0],
          [77.43899274359403, 12.85984143875926, 0],
          [77.43887844453603, 12.85943205775281, 0]
        ]]
      }
    },
    {
      "type": "Feature",
      "properties": { "id": 15, "name": "Open Auditorium", "color": "blue" },
      "geometry": {
        "type": "Polygon",
        "coordinates": [[
          [77.43856113753331, 12.86317436327717, 0],
          [77.43825897695012, 12.86247498983735, 0],
          [77.43835193711912, 12.86241380452392, 0],
          [77.43848727535681, 12.86236311956727, 0],
          [77.43854150636822, 12.86235288030173, 0],
          [77.43882251791266, 12.86303451011817, 0],
          [77.43856113753331, 12.86317436327717, 0]
        ]]
      }
    },
    {
      "type": "Feature",
      "properties": { "id": 16, "name": "Pond 1" },
      "geometry": {
        "type": "Polygon",
        "coordinates": [[
          [77.43869875197188, 12.8615869528577, 0],
          [77.43823782336672, 12.86123195530019, 0],
          [77.43831284974351, 12.86104955846332, 0],
          [77.43865667684845, 12.86124457103178, 0],
          [77.43877331849805, 12.8613478813138, 0],
          [77.4387757516843, 12.86136551670027, 0],
          [77.4387779985082, 12.86137660549267, 0],
          [77.43878231965869, 12.86139228553979, 0],
          [77.43878660397431, 12.86140588217228, 0],
          [77.43878898234348, 12.86141954535945, 0],
          [77.43878943892045, 12.86143327533543, 0],
          [77.43879059139304, 12.86146793654504, 0],
          [77.43878564209582, 12.86149594697048, 0],
          [77.43878207452546, 12.86150755344126, 0],
          [77.43869875197188, 12.8615869528577, 0]
        ]]
      }
    },
    {
      "type": "Feature",
      "properties": { "id": 17, "name": "Pond 2" },
      "geometry": {
        "type": "Polygon",
        "coordinates": [[
          [77.43908481960045, 12.86140545444468, 0],
          [77.43920332078473, 12.86141441081613, 0],
          [77.43922982506274, 12.86160637937043, 0],
          [77.43923232463746, 12.86196987280855, 0],
          [77.43909207558218, 12.86196774956047, 0],
          [77.43890893970121, 12.86182941465134, 0],
          [77.43886520576925, 12.86177562402842, 0],
          [77.43901727574531, 12.86159259902957, 0],
          [77.43908481960045, 12.86140545444468, 0]
        ]]
      }
    },
    {
      "type": "Feature",
      "properties": { "id": 18, "name": "Pond 3" },
      "geometry": {
        "type": "Polygon",
        "coordinates": [[
          [77.43951712656494, 12.86144304173962, 0],
          [77.4395190831366, 12.8614419522402, 0],
          [77.43952483194357, 12.86143647066228, 0],
          [77.43952766920125, 12.86143318508826, 0],
          [77.439530499822, 12.86142990731063, 0],
          [77.43953332375503, 12.86142663727147, 0],
          [77.43953801309891, 12.86142119107065, 0],
          [77.43954074930022, 12.86141681249969, 0],
          [77.43954360419094, 12.86141462382525, 0],
          [77.43956113662763, 12.86140913107181, 0],
          [77.43958042011195, 12.86140145372155, 0],
          [77.43967833019268, 12.8614427751093, 0],
          [77.4396838964855, 12.86144723682272, 0],
          [77.43969482557618, 12.86145395144265, 0],
          [77.439699296588, 12.86145732741753, 0],
          [77.43970493808231, 12.86146184515334, 0],
          [77.43970971163759, 12.86146750519669, 0],
          [77.43971317532328, 12.86147085470734, 0],
          [77.43971852130436, 12.86148918290597, 0],
          [77.43961876754317, 12.86201279245918, 0],
          [77.43961782458187, 12.86201727069559, 0],
          [77.43961574348889, 12.86202322392744, 0],
          [77.43960440637505, 12.86201822436185, 0],
          [77.43960255851914, 12.86200762497946, 0],
          [77.43960194183227, 12.86199713680126, 0],
          [77.43959247912152, 12.86198044023949, 0],
          [77.43958883814219, 12.86198029654486, 0],
          [77.43958277296539, 12.86198005722859, 0],
          [77.43955647346525, 12.8619864044312, 0],
          [77.43954786267122, 12.86198310526932, 0],
          [77.43954150082583, 12.86197548533108, 0],
          [77.43953884131939, 12.86196950881649, 0],
          [77.4395334872803, 12.86195612140577, 0],
          [77.43953073816324, 12.86194728030822, 0],
          [77.43952925439113, 12.86193998558567, 0],
          [77.43952517097006, 12.86192686340192, 0],
          [77.43952235789519, 12.86191531993743, 0],
          [77.43952079836886, 12.86190532324264, 0],
          [77.43952063876165, 12.86190107953308, 0],
          [77.43951396433955, 12.86188031028775, 0],
          [77.4395112970834, 12.86187148323798, 0],
          [77.43950996874804, 12.86186708586672, 0],
          [77.43950843523314, 12.86185694229927, 0],
          [77.43950765789029, 12.8618355304433, 0],
          [77.43950745234179, 12.86182986914813, 0],
          [77.43950609631878, 12.8618241799722, 0],
          [77.43950210674124, 12.8618086313418, 0],
          [77.4394995325143, 12.86180020012218, 0],
          [77.43949587994852, 12.8617931492715, 0],
          [77.43949342516989, 12.8617875511895, 0],
          [77.43949202642231, 12.86177928259534, 0],
          [77.43949172182921, 12.86176974329043, 0],
          [77.43949146223581, 12.86176161319589, 0],
          [77.4394921111877, 12.86174686024437, 0],
          [77.43949180952477, 12.86173751822282, 0],
          [77.43949176654932, 12.86173618830817, 0],
          [77.43949146584004, 12.86169356920175, 0],
          [77.43949137784224, 12.86169093454605, 0],
          [77.43949312919406, 12.86167787618332, 0],
          [77.43949613729998, 12.86167013230094, 0],
          [77.43949803995758, 12.86166239736971, 0],
          [77.43949993262923, 12.86165470327771, 0],
          [77.43950077915291, 12.86164830248366, 0],
          [77.43950265542436, 12.86164068267072, 0],
          [77.43950236386955, 12.86163304498031, 0],
          [77.43950427518344, 12.86162676903645, 0],
          [77.43950505436921, 12.86161923435864, 0],
          [77.43950587920088, 12.86161299076825, 0],
          [77.43950543343637, 12.86160177310746, 0],
          [77.43950620268627, 12.86159437140481, 0],
          [77.43951015332813, 12.86158708599819, 0],
          [77.43951090619861, 12.86157976049672, 0],
          [77.43951387370473, 12.86157495631032, 0],
          [77.43951572212197, 12.8615689299226, 0],
          [77.43951745468459, 12.86156051655881, 0],
          [77.4395192287201, 12.86155332812431, 0],
          [77.43952005512487, 12.86154853364698, 0],
          [77.43951972100274, 12.86154133912245, 0],
          [77.43951955348028, 12.86153774678033, 0],
          [77.43951916171997, 12.86152938154309, 0],
          [77.43951992078303, 12.86152345530044, 0],
          [77.43951958557437, 12.86151635997872, 0],
          [77.43952137233603, 12.86151050756935, 0],
          [77.4395238945845, 12.86149886441417, 0],
          [77.43951437064594, 12.86144858450131, 0],
          [77.43951712656494, 12.86144304173962, 0]
        ]]
      }
    },
    {
      "type": "Feature",
      "properties": { "id": 19, "name": "Pond 4" },
      "geometry": {
        "type": "Polygon",
        "coordinates": [[
          [77.44024818469084, 12.86202040541819, 0],
          [77.44020878606696, 12.86187647163094, 0],
          [77.44019989987243, 12.86179168950901, 0],
          [77.44019934640947, 12.86178205395689, 0],
          [77.44020220663229, 12.86177235858181, 0],
          [77.44020686984025, 12.86176456217182, 0],
          [77.44021491607664, 12.86175669357951, 0],
          [77.44022159443355, 12.86175459480819, 0],
          [77.44035142519985, 12.86173885047782, 0],
          [77.44037302380967, 12.8617690088573, 0],
          [77.44037849793385, 12.86179016184364, 0],
          [77.44038287882509, 12.86179980613604, 0],
          [77.44040924624468, 12.8619992965501, 0],
          [77.44033789676357, 12.86201511929899, 0],
          [77.44024818469084, 12.86202040541819, 0]
        ]]
      }
    },
    {
      "type": "Feature",
      "properties": { "id": 20, "name": "Pond 5" },
      "geometry": {
        "type": "Polygon",
        "coordinates": [[
          [77.44065507482418, 12.86170484060476, 0],
          [77.4406585502267, 12.86170677621388, 0],
          [77.44066289877961, 12.86170872481757, 0],
          [77.44066811083439, 12.86170973273599, 0],
          [77.44077215244317, 12.86168572514808, 0],
          [77.44082781103278, 12.86183910639181, 0],
          [77.44060060552195, 12.8619392715563, 0],
          [77.44055319471344, 12.86192045672874, 0],
          [77.44052588993706, 12.86176993571616, 0],
          [77.44065507482418, 12.86170484060476, 0]
        ]]
      }
    },
    {
      "type": "Feature",
      "properties": { "id": 21, "name": "Pond 6" },
      "geometry": {
        "type": "Polygon",
        "coordinates": [[
          [77.44089270720433, 12.86171201220512, 0],
          [77.44089295595151, 12.86170792177116, 0],
          [77.44089237495717, 12.86170282363226, 0],
          [77.44089280762498, 12.86169573151433, 0],
          [77.44089293080472, 12.86169371267457, 0],
          [77.44089412250847, 12.86168868640764, 0],
          [77.44090143417843, 12.86168472428275, 0],
          [77.44090696087433, 12.86168076047334, 0],
          [77.44106196936333, 12.86160503868252, 0],
          [77.44111506788734, 12.86176568667469, 0],
          [77.44095418779389, 12.86181598815398, 0],
          [77.44092896921487, 12.86181425113373, 0],
          [77.44092731430486, 12.86180888399928, 0],
          [77.44092655497489, 12.86180459588569, 0],
          [77.44092397919684, 12.8617992821335, 0],
          [77.44089270720433, 12.86171201220512, 0]
        ]]
      }
    },
    {
      "type": "Feature",
      "properties": { "id": 22, "name": "Pond 7" },
      "geometry": {
        "type": "Polygon",
        "coordinates": [[
          [77.44140322894795, 12.86148095307931, 0],
          [77.44154334410743, 12.86146040992523, 0],
          [77.44161624579193, 12.86152829347729, 0],
          [77.4412476673842, 12.86170184874289, 0],
          [77.44119605730046, 12.86156858477939, 0],
          [77.44140322894795, 12.86148095307931, 0]
        ]]
      }
    },
    {
      "type": "Feature",
      "properties": { "id": 23, "name": "Pond 8" },
      "geometry": {
        "type": "Polygon",
        "coordinates": [[
          [77.43984424824824, 12.86203035865866, 0],
          [77.43984418634935, 12.86201814709687, 0],
          [77.43983572826696, 12.86200880237682, 0],
          [77.43983336723319, 12.86199865714817, 0],
          [77.43983331101812, 12.86198771485827, 0],
          [77.43983336811958, 12.86198680852285, 0],
          [77.43983694264413, 12.8619769064193, 0],
          [77.4398395338862, 12.86197065577988, 0],
          [77.43984273779684, 12.86196622112742, 0],
          [77.4398466602258, 12.86196180924766, 0],
          [77.43984968768444, 12.86196005724374, 0],
          [77.43984862258284, 12.861953011785, 0],
          [77.43984601068111, 12.86194775028141, 0],
          [77.43984579021367, 12.86193906205234, 0],
          [77.43984594137733, 12.86193647113795, 0],
          [77.43984634260184, 12.86192959425643, 0],
          [77.43984654218553, 12.86192617328705, 0],
          [77.4398454552405, 12.86192020764499, 0],
          [77.43984498953223, 12.86191596959371, 0],
          [77.43984319907403, 12.8619100608345, 0],
          [77.43984350321387, 12.86190503267728, 0],
          [77.43984365471144, 12.86190252808808, 0],
          [77.43984817369352, 12.86189833673154, 0],
          [77.43985121764042, 12.86189494834954, 0],
          [77.43985490778944, 12.86189242172751, 0],
          [77.43985722407481, 12.86188905122349, 0],
          [77.43986037776072, 12.86188317787553, 0],
          [77.43986140956287, 12.86187731829996, 0],
          [77.43986164352781, 12.86187314834673, 0],
          [77.4398640183154, 12.86186817200772, 0],
          [77.43986642446932, 12.86186240005003, 0],
          [77.43986668921941, 12.86185747953184, 0],
          [77.43986686492393, 12.86185421397477, 0],
          [77.43986703997717, 12.86185096022479, 0],
          [77.43986747490034, 12.86184287693735, 0],
          [77.43986777702654, 12.86183726162674, 0],
          [77.4398687617599, 12.8618316821848, 0],
          [77.43987038109326, 12.86182692835082, 0],
          [77.4398734338111, 12.8618206301541, 0],
          [77.43987435234027, 12.86181593419185, 0],
          [77.43987466810796, 12.86180971045305, 0],
          [77.43987426856663, 12.86180429985061, 0],
          [77.43987395029721, 12.86179739218888, 0],
          [77.43987355576742, 12.86179205696011, 0],
          [77.43987324248378, 12.86178524519923, 0],
          [77.43987214845878, 12.86178073265417, 0],
          [77.4398717631147, 12.86177549848708, 0],
          [77.43986964107785, 12.86176586002948, 0],
          [77.43986918539376, 12.86176218190054, 0],
          [77.43986815721314, 12.86175705852843, 0],
          [77.43986660574059, 12.86174979232249, 0],
          [77.43986550917086, 12.8617461821027, 0],
          [77.43986380938988, 12.86174186963294, 0],
          [77.43986211824399, 12.86173757905885, 0],
          [77.43986172903571, 12.86173331142359, 0],
          [77.43986190102333, 12.86173047869648, 0],
          [77.43986252045897, 12.86172055562423, 0],
          [77.43986265328847, 12.86171844092905, 0],
          [77.43986355702633, 12.86171422867922, 0],
          [77.43986518699124, 12.86170861795077, 0],
          [77.43986795242509, 12.86170511381274, 0],
          [77.43987019523991, 12.86169955071834, 0],
          [77.43987031970079, 12.86169747828128, 0],
          [77.43987069110638, 12.86169129387548, 0],
          [77.43987114107576, 12.86168380147253, 0],
          [77.43987138470322, 12.86167974505419, 0],
          [77.43987170753734, 12.86167436954525, 0],
          [77.43987140638725, 12.86166903422334, 0],
          [77.43987160698786, 12.86166571664206, 0],
          [77.43987138782576, 12.86165912714446, 0],
          [77.43986985952432, 12.86165390214357, 0],
          [77.43986944711045, 12.8616506523016, 0],
          [77.43986785162545, 12.86164677544336, 0],
          [77.43986809786769, 12.86164291059691, 0],
          [77.43986834282889, 12.86163906547553, 0],
          [77.43986846488127, 12.86163715028473, 0],
          [77.4398693152712, 12.86163333207967, 0],
          [77.43987059598321, 12.86162262324962, 0],
          [77.43987106555097, 12.86161515769374, 0],
          [77.43987164591771, 12.86160593064639, 0],
          [77.43987332890872, 12.86159802240194, 0],
          [77.43987436719929, 12.8615907996204, 0],
          [77.43987311652884, 12.86156716580861, 0],
          [77.43987317248011, 12.86156612925771, 0],
          [77.43988031126031, 12.86156196388799, 0],
          [77.43988426153302, 12.86156195256046, 0],
          [77.4398989942672, 12.86156392607556, 0],
          [77.43991267785266, 12.86156798698831, 0],
          [77.43991755333832, 12.86157003657326, 0],
          [77.43991953536352, 12.86157002206754, 0],
          [77.43993142509044, 12.86156993527609, 0],
          [77.43995021824539, 12.86157084151273, 0],
          [77.43996604587502, 12.86157176978849, 0],
          [77.43997495895292, 12.86157170444669, 0],
          [77.44001855416346, 12.86158081476021, 0],
          [77.44008416223004, 12.86198517037028, 0],
          [77.43985864682021, 12.86203355915985, 0],
          [77.43984424824824, 12.86203035865866, 0]
        ]]
      }
    },
    {
      "type": "Feature",
      "properties": { "id": 24, "name": "PU College", "color": "red" },
      "geometry": {
        "type": "Polygon",
        "coordinates": [[
          [77.43743749523748, 12.8599352216635, 0],
          [77.43744795008202, 12.85993530135871, 0],
          [77.43745251492342, 12.85990369273882, 0],
          [77.43768556223499, 12.85984373722381, 0],
          [77.43770715921372, 12.85997311304375, 0],
          [77.43782565534418, 12.85994589815841, 0],
          [77.43784990662508, 12.86006232904884, 0],
          [77.43746934430654, 12.86019118619544, 0],
          [77.43751891102924, 12.86041385914772, 0],
          [77.43732445116024, 12.86046460176857, 0],
          [77.43733989836355, 12.86050249260949, 0],
          [77.43730453788218, 12.86051917933454, 0],
          [77.43725513516954, 12.86053831240126, 0],
          [77.43720650309298, 12.86054093300739, 0],
          [77.43715574340906, 12.86050007011541, 0],
          [77.43693218284525, 12.86057982871701, 0],
          [77.43681594856054, 12.86010957360189, 0],
          [77.43743749523748, 12.8599352216635, 0]
        ]]
      }
    },
    {
      "type": "Feature",
      "properties": { "id": 25, "name": "Tennis Court", "color": "yellow" },
      "geometry": {
        "type": "Polygon",
        "coordinates": [[
          [77.43679823483333, 12.86118951507979, 0],
          [77.43697981207282, 12.86115021854547, 0],
          [77.43703457170015, 12.8613477861956, 0],
          [77.43686883068469, 12.86139917687776, 0],
          [77.43679823483333, 12.86118951507979, 0]
        ]]
      }
    }
  ]
}
